CCSDS_OMM_VERS = 2.0
CREATION_DATE  = 
ORIGINATOR     = 

OBJECT_NAME    = STARLINK-36910
OBJECT_ID      = 2026-039V
CENTER_NAME    = EARTH
REF_FRAME      = TEME
TIME_SYSTEM    = UTC
MEAN_ELEMENT_THEORY = SGP/SGP4

EPOCH          = 2026-03-09T22:00:01.999584
MEAN_MOTION    = 15.85154031
ECCENTRICITY   = .0001674
INCLINATION    = 42.9980
RA_OF_ASC_NODE = 53.3633
ARG_OF_PERICENTER = 261.6120
MEAN_ANOMALY   = 69.7562

EPHEMERIS_TYPE = 0
CLASSIFICATION_TYPE = U
NORAD_CAT_ID   = 68005
ELEMENT_SET_NO = 999
REV_AT_EPOCH   = 291
BSTAR          = -.72842442E-2
MEAN_MOTION_DOT = -.1565163E-1
MEAN_MOTION_DDOT = 0

CCSDS_OMM_VERS = 2.0
CREATION_DATE  = 
ORIGINATOR     = 

OBJECT_NAME    = STARLINK-36889
OBJECT_ID      = 2026-039W
CENTER_NAME    = EARTH
REF_FRAME      = TEME
TIME_SYSTEM    = UTC
MEAN_ELEMENT_THEORY = SGP/SGP4

EPOCH          = 2026-03-09T22:00:01.999584
MEAN_MOTION    = 15.85471581
ECCENTRICITY   = .00015275
INCLINATION    = 42.9979
RA_OF_ASC_NODE = 53.3437
ARG_OF_PERICENTER = 264.2793
MEAN_ANOMALY   = 74.5270

EPHEMERIS_TYPE = 0
CLASSIFICATION_TYPE = U
NORAD_CAT_ID   = 68006
ELEMENT_SET_NO = 999
REV_AT_EPOCH   = 291
BSTAR          = -.71582541E-2
MEAN_MOTION_DOT = -.1562464E-1
MEAN_MOTION_DDOT = 0

CCSDS_OMM_VERS = 2.0
CREATION_DATE  = 
ORIGINATOR     = 

OBJECT_NAME    = STARLINK-36592
OBJECT_ID      = 2026-039X
CENTER_NAME    = EARTH
REF_FRAME      = TEME
TIME_SYSTEM    = UTC
MEAN_ELEMENT_THEORY = SGP/SGP4

EPOCH          = 2026-03-09T22:00:01.999584
MEAN_MOTION    = 15.85628397
ECCENTRICITY   = .00015892
INCLINATION    = 42.9975
RA_OF_ASC_NODE = 53.3353
ARG_OF_PERICENTER = 262.4804
MEAN_ANOMALY   = 80.0297

EPHEMERIS_TYPE = 0
CLASSIFICATION_TYPE = U
NORAD_CAT_ID   = 68007
ELEMENT_SET_NO = 999
REV_AT_EPOCH   = 291
BSTAR          = -.71174949E-2
MEAN_MOTION_DOT = -.1565255E-1
MEAN_MOTION_DDOT = 0

CCSDS_OMM_VERS = 2.0
CREATION_DATE  = 
ORIGINATOR     = 

OBJECT_NAME    = STARLINK-36911
OBJECT_ID      = 2026-039Y
CENTER_NAME    = EARTH
REF_FRAME      = TEME
TIME_SYSTEM    = UTC
MEAN_ELEMENT_THEORY = SGP/SGP4

EPOCH          = 2026-03-09T22:00:01.999584
MEAN_MOTION    = 15.85762918
ECCENTRICITY   = .00016831
INCLINATION    = 42.9978
RA_OF_ASC_NODE = 53.3258
ARG_OF_PERICENTER = 259.9093
MEAN_ANOMALY   = 86.3596

EPHEMERIS_TYPE = 0
CLASSIFICATION_TYPE = U
NORAD_CAT_ID   = 68008
ELEMENT_SET_NO = 999
REV_AT_EPOCH   = 291
BSTAR          = -.70749252E-2
MEAN_MOTION_DOT = -.156619E-1
MEAN_MOTION_DDOT = 0

CCSDS_OMM_VERS = 2.0
CREATION_DATE  = 
ORIGINATOR     = 

OBJECT_NAME    = STARLINK-36956
OBJECT_ID      = 2026-039Z
CENTER_NAME    = EARTH
REF_FRAME      = TEME
TIME_SYSTEM    = UTC
MEAN_ELEMENT_THEORY = SGP/SGP4

EPOCH          = 2026-03-09T22:00:01.999584
MEAN_MOTION    = 15.85906507
ECCENTRICITY   = .00016074
INCLINATION    = 42.9974
RA_OF_ASC_NODE = 53.3161
ARG_OF_PERICENTER = 257.6036
MEAN_ANOMALY   = 92.3588

EPHEMERIS_TYPE = 0
CLASSIFICATION_TYPE = U
NORAD_CAT_ID   = 68009
ELEMENT_SET_NO = 999
REV_AT_EPOCH   = 291
BSTAR          = -.70225956E-2
MEAN_MOTION_DOT = -.1565653E-1
MEAN_MOTION_DDOT = 0

CCSDS_OMM_VERS = 2.0
CREATION_DATE  = 
ORIGINATOR     = 

OBJECT_NAME    = STARLINK-36953
OBJECT_ID      = 2026-039AA
CENTER_NAME    = EARTH
REF_FRAME      = TEME
TIME_SYSTEM    = UTC
MEAN_ELEMENT_THEORY = SGP/SGP4

EPOCH          = 2026-03-09T22:00:01.999584
MEAN_MOTION    = 15.86150172
ECCENTRICITY   = .00015966
INCLINATION    = 42.9973
RA_OF_ASC_NODE = 53.2966
ARG_OF_PERICENTER = 263.1823
MEAN_ANOMALY   = 94.3375

EPHEMERIS_TYPE = 0
CLASSIFICATION_TYPE = U
NORAD_CAT_ID   = 68010
ELEMENT_SET_NO = 999
REV_AT_EPOCH   = 291
BSTAR          = -.6956289E-2
MEAN_MOTION_DOT = -.1569152E-1
MEAN_MOTION_DDOT = 0

CCSDS_OMM_VERS = 2.0
CREATION_DATE  = 
ORIGINATOR     = 

OBJECT_NAME    = STARLINK-36991
OBJECT_ID      = 2026-039AB
CENTER_NAME    = EARTH
REF_FRAME      = TEME
TIME_SYSTEM    = UTC
MEAN_ELEMENT_THEORY = SGP/SGP4

EPOCH          = 2026-03-09T22:00:01.999584
MEAN_MOTION    = 15.86272058
ECCENTRICITY   = .0001714
INCLINATION    = 42.9972
RA_OF_ASC_NODE = 53.2874
ARG_OF_PERICENTER = 262.3348
MEAN_ANOMALY   = 98.9266

EPHEMERIS_TYPE = 0
CLASSIFICATION_TYPE = U
NORAD_CAT_ID   = 68011
ELEMENT_SET_NO = 999
REV_AT_EPOCH   = 291
BSTAR          = -.68898297E-2
MEAN_MOTION_DOT = -.156435E-1
MEAN_MOTION_DDOT = 0

CCSDS_OMM_VERS = 2.0
CREATION_DATE  = 
ORIGINATOR     = 

OBJECT_NAME    = STARLINK-36936
OBJECT_ID      = 2026-039AC
CENTER_NAME    = EARTH
REF_FRAME      = TEME
TIME_SYSTEM    = UTC
MEAN_ELEMENT_THEORY = SGP/SGP4

EPOCH          = 2026-03-09T22:00:01.999584
MEAN_MOTION    = 15.86534474
ECCENTRICITY   = .0001663
INCLINATION    = 42.9971
RA_OF_ASC_NODE = 53.2682
ARG_OF_PERICENTER = 262.9029
MEAN_ANOMALY   = 105.7687

EPHEMERIS_TYPE = 0
CLASSIFICATION_TYPE = U
NORAD_CAT_ID   = 68012
ELEMENT_SET_NO = 999
REV_AT_EPOCH   = 291
BSTAR          = -.6851069E-2
MEAN_MOTION_DOT = -.1574461E-1
MEAN_MOTION_DDOT = 0

CCSDS_OMM_VERS = 2.0
CREATION_DATE  = 
ORIGINATOR     = 

OBJECT_NAME    = STARLINK-36967
OBJECT_ID      = 2026-039AD
CENTER_NAME    = EARTH
REF_FRAME      = TEME
TIME_SYSTEM    = UTC
MEAN_ELEMENT_THEORY = SGP/SGP4

EPOCH          = 2026-03-09T22:00:01.999584
MEAN_MOTION    = 15.86034512
ECCENTRICITY   = .00017341
INCLINATION    = 42.9972
RA_OF_ASC_NODE = 53.3059
ARG_OF_PERICENTER = 258.5361
MEAN_ANOMALY   = 95.1689

EPHEMERIS_TYPE = 0
CLASSIFICATION_TYPE = U
NORAD_CAT_ID   = 68013
ELEMENT_SET_NO = 999
REV_AT_EPOCH   = 291
BSTAR          = -.69624488E-2
MEAN_MOTION_DOT = -.156263E-1
MEAN_MOTION_DDOT = 0

CCSDS_OMM_VERS = 2.0
CREATION_DATE  = 
ORIGINATOR     = 

OBJECT_NAME    = STARLINK-36985
OBJECT_ID      = 2026-039AE
CENTER_NAME    = EARTH
REF_FRAME      = TEME
TIME_SYSTEM    = UTC
MEAN_ELEMENT_THEORY = SGP/SGP4

EPOCH          = 2026-03-09T22:00:01.999584
MEAN_MOTION    = 15.86409400
ECCENTRICITY   = .00017298
INCLINATION    = 42.9972
RA_OF_ASC_NODE = 53.2783
ARG_OF_PERICENTER = 258.4280
MEAN_ANOMALY   = 106.5011

EPHEMERIS_TYPE = 0
CLASSIFICATION_TYPE = U
NORAD_CAT_ID   = 68014
ELEMENT_SET_NO = 999
REV_AT_EPOCH   = 291
BSTAR          = -.68543181E-2
MEAN_MOTION_DOT = -.1566618E-1
MEAN_MOTION_DDOT = 0

CCSDS_OMM_VERS = 2.0
CREATION_DATE  = 
ORIGINATOR     = 

OBJECT_NAME    = STARLINK-36335
OBJECT_ID      = 2026-040A
CENTER_NAME    = EARTH
REF_FRAME      = TEME
TIME_SYSTEM    = UTC
MEAN_ELEMENT_THEORY = SGP/SGP4

EPOCH          = 2026-03-09T22:00:01.999584
MEAN_MOTION    = 16.04916859
ECCENTRICITY   = .00010058
INCLINATION    = 97.2779
RA_OF_ASC_NODE = 17.1104
ARG_OF_PERICENTER = 104.6290
MEAN_ANOMALY   = 244.1763

EPHEMERIS_TYPE = 0
CLASSIFICATION_TYPE = U
NORAD_CAT_ID   = 68015
ELEMENT_SET_NO = 999
REV_AT_EPOCH   = 241
BSTAR          = -.17098192E-2
MEAN_MOTION_DOT = -.1149249E-1
MEAN_MOTION_DDOT = .44892206E-3

CCSDS_OMM_VERS = 2.0
CREATION_DATE  = 
ORIGINATOR     = 

OBJECT_NAME    = STARLINK-36923
OBJECT_ID      = 2026-040B
CENTER_NAME    = EARTH
REF_FRAME      = TEME
TIME_SYSTEM    = UTC
MEAN_ELEMENT_THEORY = SGP/SGP4

EPOCH          = 2026-03-09T22:00:01.999584
MEAN_MOTION    = 16.05139455
ECCENTRICITY   = .00008918
INCLINATION    = 97.2781
RA_OF_ASC_NODE = 17.1129
ARG_OF_PERICENTER = 90.7921
MEAN_ANOMALY   = 263.2631

EPHEMERIS_TYPE = 0
CLASSIFICATION_TYPE = U
NORAD_CAT_ID   = 68016
ELEMENT_SET_NO = 999
REV_AT_EPOCH   = 246
BSTAR          = -.17188835E-2
MEAN_MOTION_DOT = -.1170731E-1
MEAN_MOTION_DDOT = .46580987E-3

