STARLINK-36910          
1 68005U 26039V   26068.91668981 -.01565163  00000+0 -72842-2 0  9992
2 68005  42.9980  53.3633 0001674 261.6120  69.7562 15.85154031  2912
STARLINK-36889          
1 68006U 26039W   26068.91668981 -.01562464  00000+0 -71583-2 0  9995
2 68006  42.9979  53.3437 0001527 264.2793  74.5270 15.85471581  2917
STARLINK-36592          
1 68007U 26039X   26068.91668981 -.01565255  00000+0 -71175-2 0  9994
2 68007  42.9975  53.3353 0001589 262.4804  80.0297 15.85628397  2912
STARLINK-36911          
1 68008U 26039Y   26068.91668981 -.01566190  00000+0 -70749-2 0  9990
2 68008  42.9978  53.3258 0001683 259.9093  86.3596 15.85762918  2915
STARLINK-36956          
1 68009U 26039Z   26068.91668981 -.01565653  00000+0 -70226-2 0  9994
2 68009  42.9974  53.3161 0001607 257.6036  92.3588 15.85906507  2915
STARLINK-36953          
1 68010U 26039AA  26068.91668981 -.01569152  00000+0 -69563-2 0  9996
2 68010  42.9973  53.2966 0001596 263.1823  94.3375 15.86150172  2917
STARLINK-36991          
1 68011U 26039AB  26068.91668981 -.01564350  00000+0 -68898-2 0  9992
2 68011  42.9972  53.2874 0001714 262.3348  98.9266 15.86272058  2917
STARLINK-36936          
1 68012U 26039AC  26068.91668981 -.01574461  00000+0 -68511-2 0  9999
2 68012  42.9971  53.2682 0001663 262.9029 105.7687 15.86534474  2916
STARLINK-36967          
1 68013U 26039AD  26068.91668981 -.01562630  00000+0 -69624-2 0  9991
2 68013  42.9972  53.3059 0001734 258.5361  95.1689 15.86034512  2918
STARLINK-36985          
1 68014U 26039AE  26068.91668981 -.01566618  00000+0 -68543-2 0  9991
2 68014  42.9972  53.2783 0001729 258.4280 106.5011 15.86409400  2913
STARLINK-36335          
1 68015U 26040A   26068.91668981 -.01149249  44892-3 -17098-2 0  9991
2 68015  97.2779  17.1104 0001005 104.6290 244.1763 16.04916859  2418
STARLINK-36923          
1 68016U 26040B   26068.91668981 -.01170731  46581-3 -17189-2 0  9990
2 68016  97.2781  17.1129 0000891  90.7921 263.2631 16.05139455  2468
